{
  "norad_id": 66435,
  "name": "STARLINK-35502",
  "history": [
    {
      "epoch": "2026-03-28T21:36:19.177344Z",
      "apogee_km": 483.677033316475,
      "perigee_km": 482.33499374302846,
      "latitude_deg": 1.6086108979116314e-05,
      "longitude_deg": 15.081876375580727,
      "height_km": 482.8806392999712,
      "semi_major_axis_km": 6861.143013529751,
      "eccentricity": 9.78e-05,
      "inclination_deg": 43.0005,
      "raan_deg": 165.4758,
      "arg_perigee_deg": 261.58,
      "mean_anomaly_deg": 98.4941,
      "mean_motion_rev_day": 15.27594388
    },
    {
      "epoch": "2026-03-29T05:27:06.517728Z",
      "apogee_km": 483.1644376524582,
      "perigee_km": 482.85568603467436,
      "latitude_deg": 1.8327834472534268e-05,
      "longitude_deg": -104.77991638169392,
      "height_km": 482.864747730795,
      "semi_major_axis_km": 6861.147061843566,
      "eccentricity": 2.25e-05,
      "inclination_deg": 43.0005,
      "raan_deg": 163.6335,
      "arg_perigee_deg": 120.9684,
      "mean_anomaly_deg": 239.119,
      "mean_motion_rev_day": 15.27593036
    }
  ]
}